CCSDS_OMM_VERS = 2.0
CREATION_DATE  = 
ORIGINATOR     = 

OBJECT_NAME    = HTV-X1
OBJECT_ID      = 2025-241A
CENTER_NAME    = EARTH
REF_FRAME      = TEME
TIME_SYSTEM    = UTC
MEAN_ELEMENT_THEORY = SGP/SGP4

EPOCH          = 2026-03-14T08:15:41.714784
MEAN_MOTION    = 15.22910164
ECCENTRICITY   = .00057383
INCLINATION    = 51.6357
RA_OF_ASC_NODE = 50.7100
ARG_OF_PERICENTER = 187.3558
MEAN_ANOMALY   = 172.7336

EPHEMERIS_TYPE = 0
CLASSIFICATION_TYPE = U
NORAD_CAT_ID   = 66174
ELEMENT_SET_NO = 999
REV_AT_EPOCH   = 2166
BSTAR          = .57208053E-3
MEAN_MOTION_DOT = .13297E-3
MEAN_MOTION_DDOT = 0

CCSDS_OMM_VERS = 2.0
CREATION_DATE  = 
ORIGINATOR     = 

OBJECT_NAME    = SZ-21 MODULE
OBJECT_ID      = 2025-246C
CENTER_NAME    = EARTH
REF_FRAME      = TEME
TIME_SYSTEM    = UTC
MEAN_ELEMENT_THEORY = SGP/SGP4

EPOCH          = 2026-03-17T14:02:08.684736
MEAN_MOTION    = 15.69175030
ECCENTRICITY   = .00005925
INCLINATION    = 41.4741
RA_OF_ASC_NODE = 154.7368
ARG_OF_PERICENTER = 302.6268
MEAN_ANOMALY   = 57.4517

EPHEMERIS_TYPE = 0
CLASSIFICATION_TYPE = U
NORAD_CAT_ID   = 66515
ELEMENT_SET_NO = 999
REV_AT_EPOCH   = 1931
BSTAR          = .24560925E-3
MEAN_MOTION_DOT = .29162E-3
MEAN_MOTION_DDOT = 0

CCSDS_OMM_VERS = 2.0
CREATION_DATE  = 
ORIGINATOR     = 

OBJECT_NAME    = SHENZHOU-22
OBJECT_ID      = 2025-272A
CENTER_NAME    = EARTH
REF_FRAME      = TEME
TIME_SYSTEM    = UTC
MEAN_ELEMENT_THEORY = SGP/SGP4

EPOCH          = 2026-03-17T14:03:02.689920
MEAN_MOTION    = 15.61097750
ECCENTRICITY   = .00061446
INCLINATION    = 41.4671
RA_OF_ASC_NODE = 160.1044
ARG_OF_PERICENTER = 321.5629
MEAN_ANOMALY   = 38.4771

EPHEMERIS_TYPE = 0
CLASSIFICATION_TYPE = U
NORAD_CAT_ID   = 66645
ELEMENT_SET_NO = 999
REV_AT_EPOCH   = 26752
BSTAR          = .24801355E-3
MEAN_MOTION_DOT = .2125E-3
MEAN_MOTION_DDOT = 0

CCSDS_OMM_VERS = 2.0
CREATION_DATE  = 
ORIGINATOR     = 

OBJECT_NAME    = SOYUZ-MS 28
OBJECT_ID      = 2025-275A
CENTER_NAME    = EARTH
REF_FRAME      = TEME
TIME_SYSTEM    = UTC
MEAN_ELEMENT_THEORY = SGP/SGP4

EPOCH          = 2026-03-17T20:07:47.770176
MEAN_MOTION    = 15.48349303
ECCENTRICITY   = .00062316
INCLINATION    = 51.6336
RA_OF_ASC_NODE = 32.0723
ARG_OF_PERICENTER = 202.9067
MEAN_ANOMALY   = 157.1644

EPHEMERIS_TYPE = 0
CLASSIFICATION_TYPE = U
NORAD_CAT_ID   = 66664
ELEMENT_SET_NO = 999
REV_AT_EPOCH   = 55452
BSTAR          = .1856658E-3
MEAN_MOTION_DOT = .9567E-4
MEAN_MOTION_DDOT = 0

CCSDS_OMM_VERS = 2.0
CREATION_DATE  = 
ORIGINATOR     = 

OBJECT_NAME    = DUPLEX
OBJECT_ID      = 1998-067XS
CENTER_NAME    = EARTH
REF_FRAME      = TEME
TIME_SYSTEM    = UTC
MEAN_ELEMENT_THEORY = SGP/SGP4

EPOCH          = 2026-03-17T22:23:01.448160
MEAN_MOTION    = 15.56752750
ECCENTRICITY   = .00029165
INCLINATION    = 51.6300
RA_OF_ASC_NODE = 28.2024
ARG_OF_PERICENTER = 147.7236
MEAN_ANOMALY   = 212.3935

EPHEMERIS_TYPE = 0
CLASSIFICATION_TYPE = U
NORAD_CAT_ID   = 66906
ELEMENT_SET_NO = 999
REV_AT_EPOCH   = 1641
BSTAR          = .33548582E-3
MEAN_MOTION_DOT = .24045E-3
MEAN_MOTION_DDOT = 0

CCSDS_OMM_VERS = 2.0
CREATION_DATE  = 
ORIGINATOR     = 

OBJECT_NAME    = ISS OBJECT XT
OBJECT_ID      = 1998-067XT
CENTER_NAME    = EARTH
REF_FRAME      = TEME
TIME_SYSTEM    = UTC
MEAN_ELEMENT_THEORY = SGP/SGP4

EPOCH          = 2026-03-17T20:29:49.345440
MEAN_MOTION    = 15.72037118
ECCENTRICITY   = .00049601
INCLINATION    = 51.6254
RA_OF_ASC_NODE = 23.9047
ARG_OF_PERICENTER = 133.7464
MEAN_ANOMALY   = 226.3945

EPHEMERIS_TYPE = 0
CLASSIFICATION_TYPE = U
NORAD_CAT_ID   = 66907
ELEMENT_SET_NO = 999
REV_AT_EPOCH   = 1646
BSTAR          = .10418076E-2
MEAN_MOTION_DOT = .141215E-2
MEAN_MOTION_DDOT = 0

CCSDS_OMM_VERS = 2.0
CREATION_DATE  = 
ORIGINATOR     = 

OBJECT_NAME    = ISS OBJECT XU
OBJECT_ID      = 1998-067XU
CENTER_NAME    = EARTH
REF_FRAME      = TEME
TIME_SYSTEM    = UTC
MEAN_ELEMENT_THEORY = SGP/SGP4

EPOCH          = 2026-03-17T20:26:12.776928
MEAN_MOTION    = 15.72184619
ECCENTRICITY   = .00051847
INCLINATION    = 51.6253
RA_OF_ASC_NODE = 23.8844
ARG_OF_PERICENTER = 134.5412
MEAN_ANOMALY   = 225.6010

EPHEMERIS_TYPE = 0
CLASSIFICATION_TYPE = U
NORAD_CAT_ID   = 66908
ELEMENT_SET_NO = 999
REV_AT_EPOCH   = 1646
BSTAR          = .10510459E-2
MEAN_MOTION_DOT = .143415E-2
MEAN_MOTION_DDOT = 0

CCSDS_OMM_VERS = 2.0
CREATION_DATE  = 
ORIGINATOR     = 

OBJECT_NAME    = SILVERSAT
OBJECT_ID      = 1998-067XV
CENTER_NAME    = EARTH
REF_FRAME      = TEME
TIME_SYSTEM    = UTC
MEAN_ELEMENT_THEORY = SGP/SGP4

EPOCH          = 2026-03-17T21:34:54.160608
MEAN_MOTION    = 15.75880335
ECCENTRICITY   = .0005587
INCLINATION    = 51.6245
RA_OF_ASC_NODE = 22.6989
ARG_OF_PERICENTER = 136.1413
MEAN_ANOMALY   = 224.0031

EPHEMERIS_TYPE = 0
CLASSIFICATION_TYPE = U
NORAD_CAT_ID   = 66909
ELEMENT_SET_NO = 999
REV_AT_EPOCH   = 1648
BSTAR          = .11471935E-2
MEAN_MOTION_DOT = .184645E-2
MEAN_MOTION_DDOT = 0

CCSDS_OMM_VERS = 2.0
CREATION_DATE  = 
ORIGINATOR     = 

OBJECT_NAME    = ISS OBJECT XW
OBJECT_ID      = 1998-067XW
CENTER_NAME    = EARTH
REF_FRAME      = TEME
TIME_SYSTEM    = UTC
MEAN_ELEMENT_THEORY = SGP/SGP4

EPOCH          = 2026-03-17T20:28:22.653408
MEAN_MOTION    = 15.71100096
ECCENTRICITY   = .00055476
INCLINATION    = 51.6246
RA_OF_ASC_NODE = 23.8907
ARG_OF_PERICENTER = 135.6820
MEAN_ANOMALY   = 224.4623

EPHEMERIS_TYPE = 0
CLASSIFICATION_TYPE = U
NORAD_CAT_ID   = 66910
ELEMENT_SET_NO = 999
REV_AT_EPOCH   = 1646
BSTAR          = .94833427E-3
MEAN_MOTION_DOT = .12325E-2
MEAN_MOTION_DDOT = 0

CCSDS_OMM_VERS = 2.0
CREATION_DATE  = 
ORIGINATOR     = 

OBJECT_NAME    = ISS OBJECT XX
OBJECT_ID      = 1998-067XX
CENTER_NAME    = EARTH
REF_FRAME      = TEME
TIME_SYSTEM    = UTC
MEAN_ELEMENT_THEORY = SGP/SGP4

EPOCH          = 2026-03-17T21:03:01.984320
MEAN_MOTION    = 15.80108940
ECCENTRICITY   = .00071904
INCLINATION    = 51.6216
RA_OF_ASC_NODE = 21.7750
ARG_OF_PERICENTER = 140.6515
MEAN_ANOMALY   = 219.5010

EPHEMERIS_TYPE = 0
CLASSIFICATION_TYPE = U
NORAD_CAT_ID   = 66911
ELEMENT_SET_NO = 999
REV_AT_EPOCH   = 1648
BSTAR          = .12730852E-2
MEAN_MOTION_DOT = .249839E-2
MEAN_MOTION_DDOT = 0

CCSDS_OMM_VERS = 2.0
CREATION_DATE  = 
ORIGINATOR     = 

OBJECT_NAME    = ISS OBJECT XY
OBJECT_ID      = 1998-067XY
CENTER_NAME    = EARTH
REF_FRAME      = TEME
TIME_SYSTEM    = UTC
MEAN_ELEMENT_THEORY = SGP/SGP4

EPOCH          = 2026-03-17T21:14:51.311904
MEAN_MOTION    = 15.65311946
ECCENTRICITY   = .0003618
INCLINATION    = 51.6276
RA_OF_ASC_NODE = 25.6291
ARG_OF_PERICENTER = 137.8396
MEAN_ANOMALY   = 222.2878

EPHEMERIS_TYPE = 0
CLASSIFICATION_TYPE = U
NORAD_CAT_ID   = 66912
ELEMENT_SET_NO = 999
REV_AT_EPOCH   = 1643
BSTAR          = .75848117E-3
MEAN_MOTION_DOT = .77134E-3
MEAN_MOTION_DDOT = 0

CCSDS_OMM_VERS = 2.0
CREATION_DATE  = 
ORIGINATOR     = 

OBJECT_NAME    = KNACKSAT-2
OBJECT_ID      = 1998-067XZ
CENTER_NAME    = EARTH
REF_FRAME      = TEME
TIME_SYSTEM    = UTC
MEAN_ELEMENT_THEORY = SGP/SGP4

EPOCH          = 2026-03-17T23:14:43.759392
MEAN_MOTION    = 15.52515246
ECCENTRICITY   = .0009643
INCLINATION    = 51.6316
RA_OF_ASC_NODE = 30.6908
ARG_OF_PERICENTER = 215.0520
MEAN_ANOMALY   = 144.9836

EPHEMERIS_TYPE = 0
CLASSIFICATION_TYPE = U
NORAD_CAT_ID   = 67683
ELEMENT_SET_NO = 999
REV_AT_EPOCH   = 607
BSTAR          = .45492374E-3
MEAN_MOTION_DOT = .28079E-3
MEAN_MOTION_DDOT = 0

