HTV-X1                  
1 66174U 25241A   26073.34423281  .00013297  00000+0  57208-3 0  9999
2 66174  51.6357  50.7100 0005738 187.3558 172.7336 15.22910164 21661
SZ-21 MODULE            
1 66515U 25246C   26076.58482274  .00029162  00000+0  24561-3 0  9993
2 66515  41.4741 154.7368 0000592 302.6268  57.4517 15.69175030 19313
SHENZHOU-22             
1 66645U 25272A   26076.58544780  .00021250  00000+0  24801-3 0  9994
2 66645  41.4671 160.1044 0006144 321.5629  38.4771 15.61097750267524
SOYUZ-MS 28             
1 66664U 25275A   26076.83874734  .00009567  00000+0  18567-3 0  9990
2 66664  51.6336  32.0723 0006231 202.9067 157.1644 15.48349303554528
DUPLEX                  
1 66906U 98067XS  26076.93265565  .00024045  00000+0  33549-3 0  9990
2 66906  51.6300  28.2024 0002916 147.7236 212.3935 15.56752750 16410
ISS OBJECT XT           
1 66907U 98067XT  26076.85404335  .00141215  00000+0  10418-2 0  9990
2 66907  51.6254  23.9047 0004960 133.7464 226.3945 15.72037118 16468
ISS OBJECT XU           
1 66908U 98067XU  26076.85153677  .00143415  00000+0  10510-2 0  9998
2 66908  51.6253  23.8844 0005184 134.5412 225.6010 15.72184619 16467
SILVERSAT               
1 66909U 98067XV  26076.89923797  .00184645  00000+0  11472-2 0  9999
2 66909  51.6245  22.6989 0005587 136.1413 224.0031 15.75880335 16481
ISS OBJECT XW           
1 66910U 98067XW  26076.85303997  .00123250  00000+0  94833-3 0  9999
2 66910  51.6246  23.8907 0005547 135.6820 224.4623 15.71100096 16463
ISS OBJECT XX           
1 66911U 98067XX  26076.87710630  .00249839  00000+0  12731-2 0  9996
2 66911  51.6216  21.7750 0007190 140.6515 219.5010 15.80108940 16480
ISS OBJECT XY           
1 66912U 98067XY  26076.88531611  .00077134  00000+0  75848-3 0  9994
2 66912  51.6276  25.6291 0003618 137.8396 222.2878 15.65311946 16439
KNACKSAT-2              
1 67683U 98067XZ  26076.96856203  .00028079  00000+0  45492-3 0  9992
2 67683  51.6316  30.6908 0009643 215.0520 144.9836 15.52515246  6071
